NORAD_CAT_ID,OBJECT_NAME,OBJECT_TYPE,EPOCH,MEAN_MOTION,ECCENTRICITY,INCLINATION,RA_OF_ASC_NODE,ARG_OF_PERICENTER,MEAN_ANOMALY,BSTAR,MEAN_MOTION_DOT,MEAN_MOTION_DDOT,TLE_LINE0,TLE_LINE1,TLE_LINE2,SEMIMAJOR_AXIS,PERIOD,APOGEE,PERIGEE,DECAYED
52342.0,STARLINK-3850,PAYLOAD,2023-04-23 19:36:20,15.08844587,0.0001461,53.214,236.6777,102.4952,257.6203,0.00010301,1.352e-05,0.0,0 STARLINK-3850,1 52342U 22045M   23113.81690624  .00001352  00000-0  10301-3 0  9994,2 52342  53.2140 236.6777 0001461 102.4952 257.6203 15.08844587 57137,6917.866,95.437,540.742,538.721,0.0
52342.0,STARLINK-3850,PAYLOAD,2023-04-24 08:19:24,15.08868332,0.0001869,53.217,234.2918,131.2505,228.8648,0.00055677,8.591e-05,0.0,0 STARLINK-3850,1 52342U 22045M   23114.34681313  .00008591  00000-0  55677-3 0  9995,2 52342  53.2170 234.2918 0001869 131.2505 228.8648 15.08868332 57213,6917.794,95.436,540.952,538.366,0.0
52342.0,STARLINK-3850,PAYLOAD,2023-04-24 19:27:05,15.08891245,0.0001384,53.2161,232.2195,91.6656,268.4495,0.00083044,0.00012972,0.0,0 STARLINK-3850,1 52342U 22045M   23114.81047623  .00012972  00000-0  83044-3 0  9994,2 52342  53.2161 232.2195 0001384  91.6656 268.4495 15.08891245 57282,6917.724,95.434,540.546,538.631,0.0
52342.0,STARLINK-3850,PAYLOAD,2023-04-25 11:20:59,15.08810148,0.0001497,53.2156,229.246,120.0701,240.044,-0.00071376,-0.0001162,0.0,0 STARLINK-3850,1 52342U 22045M   23115.47290816 -.00011620  00000-0 -71376-3 0  9997,2 52342  53.2156 229.2460 0001497 120.0701 240.0440 15.08810148 57380,6917.972,95.439,540.872,538.801,0.0
52342.0,STARLINK-3850,PAYLOAD,2023-04-26 11:11:46,15.08819051,0.0001192,53.2157,224.7881,108.6686,251.4435,-3.7373e-05,-8.82e-06,0.0,0 STARLINK-3850,1 52342U 22045M   23116.46651581 -.00000882  00000-0 -37373-4 0  9995,2 52342  53.2157 224.7881 0001192 108.6686 251.4435 15.08819051 57533,6917.944,95.439,540.634,538.985,0.0
52342.0,STARLINK-3850,PAYLOAD,2023-04-26 15:57:54,15.08855656,0.0001631,53.2158,223.8956,142.01,218.1008,-0.0012815,-0.00020634,0.0,0 STARLINK-3850,1 52342U 22045M   23116.66521546 -.00020634  00000-0 -12815-2 0  9993,2 52342  53.2158 223.8956 0001631 142.0100 218.1008 15.08855656 57568,6917.833,95.437,540.826,538.569,0.0
52342.0,STARLINK-3850,PAYLOAD,2023-04-27 11:02:34,15.08857619,0.0001149,53.2152,220.3277,119.4297,240.6809,0.00089981,0.00014068,0.0,0 STARLINK-3850,1 52342U 22045M   23117.46011998  .00014068  00000-0  89981-3 0  9998,2 52342  53.2152 220.3277 0001149 119.4297 240.6809 15.08857619 57682,6917.827,95.436,540.486,538.897,0.0
52342.0,STARLINK-3850,PAYLOAD,2023-04-27 17:24:06,15.08875918,0.0001165,53.2143,219.1374,118.7928,241.3182,0.0012072,0.00018996,0.0,0 STARLINK-3850,1 52342U 22045M   23117.72507334  .00018996  00000-0  12072-2 0  9991,2 52342  53.2143 219.1374 0001165 118.7928 241.3182 15.08875918 57726,6917.771,95.435,540.442,538.83,0.0
52342.0,STARLINK-3850,PAYLOAD,2023-04-28 06:07:11,15.08862207,0.0001717,53.215,216.7596,95.167,264.9518,0.00050058,7.692e-05,0.0,0 STARLINK-3850,1 52342U 22045M   23118.25499278  .00007692  00000-0  50058-3 0  9995,2 52342  53.2150 216.7596 0001717  95.1670 264.9518 15.08862207 57808,6917.813,95.436,540.865,538.49,0.0
52342.0,STARLINK-3850,PAYLOAD,2023-04-28 10:53:20,15.08844714,0.0001199,53.2175,215.8698,105.4627,254.6498,-7.9426e-05,-1.552e-05,0.0,0 STARLINK-3850,1 52342U 22045M   23118.45371295 -.00001552  00000-0 -79426-4 0  9997,2 52342  53.2175 215.8698 0001199 105.4627 254.6498 15.08844714 57838,6917.866,95.437,540.56,538.902,0.0
52342.0,STARLINK-3850,PAYLOAD,2023-04-29 12:19:30,15.0884675,0.0001212,53.2148,211.1112,78.2597,281.8531,4.2544e-05,3.89e-06,0.0,0 STARLINK-3850,1 52342U 22045M   23119.51355131  .00000389  00000-0  42544-4 0  9992,2 52342  53.2148 211.1112 0001212  78.2597 281.8531 15.08846750 57996,6917.86,95.437,540.563,538.886,0.0
52342.0,STARLINK-3850,PAYLOAD,2023-04-29 15:30:16,15.08853385,0.0001099,53.215,210.5133,97.7067,262.405,0.00012626,1.723e-05,0.0,0 STARLINK-3850,1 52342U 22045M   23119.64602673  .00001723  00000-0  12626-3 0  9992,2 52342  53.2150 210.5133 0001099  97.7067 262.4050 15.08853385 58013,6917.839,95.437,540.465,538.944,0.0
52342.0,STARLINK-3850,PAYLOAD,2023-04-30 12:10:17,15.08842365,0.0001026,53.2152,206.6461,106.8509,253.2596,6.8306e-05,8e-06,0.0,0 STARLINK-3850,1 52342U 22045M   23120.50715108  .00000800  00000-0  68306-4 0  9999,2 52342  53.2152 206.6461 0001026 106.8509 253.2596 15.08842365 58141,6917.873,95.437,540.448,539.028,0.0
52342.0,STARLINK-3850,PAYLOAD,2023-05-01 10:25:42,15.08837115,0.0001238,53.215,202.4843,91.7054,268.408,9.871e-05,1.283e-05,0.0,0 STARLINK-3850,1 52342U 22045M   23121.43451720  .00001283  00000-0  98710-4 0  9997,2 52342  53.2150 202.4843 0001238  91.7054 268.4080 15.08837115 58287,6917.889,95.438,540.611,538.898,0.0
52342.0,STARLINK-3850,PAYLOAD,2023-05-01 15:11:51,15.08838109,0.0001137,53.216,201.5926,91.7423,268.37,0.00020982,3.053e-05,0.0,0 STARLINK-3850,1 52342U 22045M   23121.63323672  .00003053  00000-0  20982-3 0  9995,2 52342  53.2160 201.5926 0001137  91.7423 268.3700 15.08838109 58314,6917.886,95.438,540.538,538.965,0.0
52342.0,STARLINK-3850,PAYLOAD,2023-05-02 11:51:52,15.08853821,0.0001182,53.2165,197.728,86.1872,273.9255,0.00064108,9.933e-05,0.0,0 STARLINK-3850,1 52342U 22045M   23122.49435607  .00009933  00000-0  64108-3 0  9993,2 52342  53.2165 197.7280 0001182  86.1872 273.9255 15.08853821 58443,6917.838,95.437,540.521,538.885,0.0
52342.0,STARLINK-3850,PAYLOAD,2023-05-02 21:24:11,15.08841907,0.0001267,53.2169,195.9429,86.6315,273.4822,0.00024389,3.596e-05,0.0,0 STARLINK-3850,1 52342U 22045M   23122.89179835  .00003596  00000-0  24389-3 0  9991,2 52342  53.2169 195.9429 0001267  86.6315 273.4822 15.08841907 58507,6917.875,95.437,540.616,538.863,0.0
52342.0,STARLINK-3850,PAYLOAD,2023-05-03 05:21:06,15.08843059,0.0001281,53.2165,194.4571,84.5298,275.5841,0.00013263,1.824e-05,0.0,0 STARLINK-3850,1 52342U 22045M   23123.22299749  .00001824  00000-0  13263-3 0  9997,2 52342  53.2165 194.4571 0001281  84.5298 275.5841 15.08843059 58557,6917.871,95.437,540.622,538.85,0.0
52342.0,STARLINK-3850,PAYLOAD,2023-05-03 11:42:39,15.0884446,0.0001184,53.2169,193.2683,96.0932,264.0195,0.00018731,2.695e-05,0.0,0 STARLINK-3850,1 52342U 22045M   23123.48795675  .00002695  00000-0  18731-3 0  9996,2 52342  53.2169 193.2683 0001184  96.0932 264.0195 15.08844460 58593,6917.867,95.437,540.551,538.913,0.0
52342.0,STARLINK-3850,PAYLOAD,2023-05-04 13:08:49,15.08841241,0.0001185,53.2162,188.5103,91.9814,268.1314,0.0001032,1.355e-05,0.0,0 STARLINK-3850,1 52342U 22045M   23124.54779959  .00001355  00000-0  10320-3 0  9999,2 52342  53.2162 188.5103 0001185  91.9814 268.1314 15.08841241 58754,6917.877,95.437,540.561,538.922,0.0
52342.0,STARLINK-3850,PAYLOAD,2023-05-05 08:13:27,15.08836629,0.0001207,53.2161,184.9421,88.3555,271.7575,9.1315e-05,1.166e-05,0.0,0 STARLINK-3850,1 52342U 22045M   23125.34268380  .00001166  00000-0  91315-4 0  9993,2 52342  53.2161 184.9421 0001207  88.3555 271.7575 15.08836629 58879,6917.891,95.438,540.591,538.921,0.0
52342.0,STARLINK-3850,PAYLOAD,2023-05-05 20:56:32,15.08840613,0.0001179,53.2156,182.5626,80.7467,279.3658,0.00013849,1.917e-05,0.0,0 STARLINK-3850,1 52342U 22045M   23125.87260373  .00001917  00000-0  13849-3 0  9994,2 52342  53.2156 182.5626 0001179  80.7467 279.3658 15.08840613 58953,6917.879,95.438,540.559,538.928,0.0
52342.0,STARLINK-3850,PAYLOAD,2023-05-06 11:15:00,15.0884876,0.0001193,53.2152,179.8861,80.7177,279.395,0.00023988,3.533e-05,0.0,0 STARLINK-3850,1 52342U 22045M   23126.46876104  .00003533  00000-0  23988-3 0  9996,2 52342  53.2152 179.8861 0001193  80.7177 279.3950 15.08848760 59040,6917.854,95.437,540.544,538.893,0.0
52342.0,STARLINK-3850,PAYLOAD,2023-05-07 03:08:52,15.08852246,0.0001308,53.2145,176.9128,78.7829,281.331,0.00016627,2.36e-05,0.0,0 STARLINK-3850,1 52342U 22045M   23127.13115793  .00002360  00000-0  16627-3 0  9990,2 52342  53.2145 176.9128 0001308  78.7829 281.3310 15.08852246 59143,6917.843,95.437,540.613,538.803,0.0
52342.0,STARLINK-3850,PAYLOAD,2023-05-07 09:30:24,15.08851287,0.000128,53.2146,175.7228,81.4921,278.6216,0.00022557,3.305e-05,0.0,0 STARLINK-3850,1 52342U 22045M   23127.39611755  .00003305  00000-0  22557-3 0  9996,2 52342  53.2146 175.7228 0001280  81.4921 278.6216 15.08851287 59187,6917.846,95.437,540.596,538.825,0.0
52342.0,STARLINK-3850,PAYLOAD,2023-05-07 20:38:06,15.08847369,0.0001275,53.2146,173.642,79.5702,280.5433,0.00014222,1.977e-05,0.0,0 STARLINK-3850,1 52342U 22045M   23127.85979812  .00001977  00000-0  14222-3 0  9991,2 52342  53.2146 173.6420 0001275  79.5702 280.5433 15.08847369 59254,6917.858,95.437,540.605,538.841,0.0
52342.0,STARLINK-3850,PAYLOAD,2023-05-08 09:21:12,15.08838488,0.0001284,53.2155,171.2618,91.6885,268.4254,1.486e-05,-5.1e-07,0.0,0 STARLINK-3850,1 52342U 22045M   23128.38972399 -.00000051  00000-0  14860-4 0  9995,2 52342  53.2155 171.2618 0001284  91.6885 268.4254 15.08838488 59331,6917.885,95.438,540.638,538.862,0.0
52342.0,STARLINK-3850,PAYLOAD,2023-05-09 12:22:45,15.08841793,0.0001341,53.2167,166.2081,94.8386,265.2759,4.0833e-05,3.62e-06,0.0,0 STARLINK-3850,1 52342U 22045M   23129.51579991  .00000362  00000-0  40833-4 0  9995,2 52342  53.2167 166.2081 0001341  94.8386 265.2759 15.08841793 59504,6917.875,95.437,540.668,538.812,0.0
52342.0,STARLINK-3850,PAYLOAD,2023-05-10 12:13:32,15.088364,0.0001327,53.2165,161.7477,94.8279,265.2865,8.556e-05,1.074e-05,0.0,0 STARLINK-3850,1 52342U 22045M   23130.50940561  .00001074  00000-0  85560-4 0  9998,2 52342  53.2165 161.7477 0001327  94.8279 265.2865 15.08836400 59659,6917.891,95.438,540.674,538.838,0.0
52342.0,STARLINK-3850,PAYLOAD,2023-05-10 18:35:05,15.0883558,0.0001327,53.2165,160.5576,95.3015,264.8129,7.5942e-05,9.21e-06,0.0,0 STARLINK-3850,1 52342U 22045M   23130.77436718  .00000921  00000-0  75942-4 0  9994,2 52342  53.2165 160.5576 0001327  95.3015 264.8129 15.08835580 59690,6917.894,95.438,540.677,538.841,0.0
